[Satellite]
VERSION=1.1
NAME=HELLAS SAT 1 (DFS 3)
NICKNAME=HELLAS SAT 1 (DFS 3)
TLE1=1 22175U 92066A   11059.49564814 -.00000064  00000-0  10000-3 0  5987
TLE2=2 22175   8.3611  58.7314 0004411 297.0145  63.0628  0.99723810 64873
